ORBCOMM FM115           
1 41186U 15081H   25300.77795462  .00001027  00000+0  23347-3 0  9993
2 41186  46.9968 128.8382 0001202 290.7356  69.3403 14.62779311527182
ORBCOMM FM108           
1 41187U 15081J   25300.74644215  .00001488  00000+0  35411-3 0  9996
2 41187  47.0044 200.8421 0002387 215.5210 144.5517 14.58441536526141
ORBCOMM FM117           
1 41188U 15081K   25300.78123580  .00001401  00000+0  33557-3 0  9992
2 41188  47.0008 199.3966 0003031 224.4067 135.6576 14.58442380526193
ORBCOMM FM116           
1 41189U 15081L   25300.35260139  .00001350  00000+0  32410-3 0  9998
2 41189  47.0024 291.2121 0001436  13.1381 346.9542 14.58513828524943
